CUTE-1 (CO-55)          
1 27844U 03031E   26157.49994927  .00000321  00000+0  15775-3 0  9999
2 27844  98.6735 166.1932 0008851 210.1158 149.9513 14.24329258190151
CUBESAT XI-IV (CO-57)   
1 27848U 03031J   26157.55333329  .00000268  00000+0  13659-3 0  9992
2 27848  98.6767 165.9671 0008459 230.3427 129.7005 14.23615194189868
CUBESAT XI-V            
1 28895U 05043F   26157.66697904  .00001638  00000+0  26546-3 0  9995
2 28895  98.2975 313.0688 0013037 235.8954 124.1016 14.72603733100207
CUTE-1.7+APD II (CO-65) 
1 32785U 08021C   26157.90710970  .00006280  00000+0  39706-3 0  9993
2 32785  97.8270 139.1129 0010418  68.8999 291.3342 15.09351948983648
CANX-2                  
1 32790U 08021H   26157.85385289  .00003894  00000+0  27460-3 0  9996
2 32790  97.8634 137.4322 0012220  81.4621 278.7990 15.05542182983253
SEEDS II (CO-66)        
1 32791U 08021J   26157.55833225  .00023420  00000+0  75009-3 0  9991
2 32791  97.7518 154.9517 0002601  35.3933 324.7480 15.32385592985663
SWISSCUBE               
1 35932U 09051B   26156.46919883  .00001141  00000+0  23506-3 0  9990
2 35932  98.4043  64.1532 0005430 246.3597 113.7034 14.62458715887444
ITUPSAT1                
1 35935U 09051E   26157.68643730  .00000831  00000+0  18172-3 0  9991
2 35935  98.4055  64.2519 0006097 273.4297  86.6205 14.60425026887203
AEROCUBE 4.5A           
1 38767U 12048K   26157.10560387  .00391799  62769-4  14146-2 0  9997
2 38767  64.6266  67.2252 0019485 215.0043 144.9836 15.88053967370893
STRAND-1                
1 39090U 13009E   26158.23931920  .00000328  00000+0  12474-3 0  9998
2 39090  98.3920 338.7188 0007407 259.4438 100.5915 14.37157528695638
BRITE-AUSTRIA           
1 39091U 13009F   26158.24790477  .00000204  00000+0  84090-4 0  9997
2 39091  98.3993 337.9300 0008956 270.0657  89.9503 14.36538233695625
NEE-01 PEGASO           
1 39151U 13018B   26158.14984891  .00003603  00000+0  34660-3 0  9991
2 39151  98.1215 301.9695 0012393 190.8803 169.2150 14.93612333709204
POPACS 2                
1 39269U 13055E   26157.70761038  .00014344  00000+0  24487-3 0  9999
2 39269  80.9909 156.1865 0417203 227.4609 129.0682 14.90961161661655
POPACS 3                
1 39270U 13055F   26157.94898707  .00012298  00000+0  28966-3 0  9993
2 39270  81.0012 240.2844 0553014 101.1430 265.2435 14.55925470637068
ZACUBE-1 (TSHEPISOSAT)  
1 39417U 13066B   26158.14216119  .00004465  00000+0  34772-3 0  9991
2 39417  97.8099 120.4248 0039960 283.1130  76.5636 15.01125110679220
WNISAT-1                
1 39423U 13066H   26158.12304427  .00000725  00000+0  14111-3 0  9996
2 39423  97.7192 307.9943 0161677 263.5474  94.7296 14.58046944665269
TRITON-1                
1 39427U 13066M   26158.30088247  .00003379  00000+0  40811-3 0  9993
2 39427  97.8247  68.3328 0088363 266.6501  92.4601 14.81672910672622
GOMX-1                  
1 39430U 13066Q   26158.24418066  .00002150  00000+0  32645-3 0  9998
2 39430  97.6490 359.3339 0130119 109.1354 252.3992 14.69421746668454
CUBEBUG-2 (LO-74)       
1 39440U 13066AA  26156.80918561  .00005560  00000+0  51354-3 0  9990
2 39440  97.8908 105.7402 0059434  65.9901 294.7524 14.93668030675299
NEE-02 KRYSAOR          
1 39441U 13066AB  26158.11286272  .00002630  00000+0  29089-3 0  9999
2 39441  97.8888  97.4002 0067683 102.4485 258.4315 14.86575916674701
FUNCUBE-1 (AO-73)       
1 39444U 13066AE  26158.17904856  .00007594  00000+0  47302-3 0  9995
2 39444  97.8278 129.4171 0034673 235.9808 123.8126 15.09372001678158
UWE-3                   
1 39446U 13066AG  26157.65461373  .00005074  00000+0  43622-3 0  9993
2 39446  97.8693 113.6587 0049030 356.7161   3.3731 14.96941234676005
BRITE-CA1 (TORONTO)     
1 40020U 14033L   26157.64225058  .00000796  00000+0  12740-3 0  9998
2 40020  97.9728 286.7655 0077539 311.3532  48.1023 14.72662532640666
QB50P1                  
1 40025U 14033R   26158.26366557  .00008812  00000+0  43536-3 0  9996
2 40025  98.0971 168.7150 0007081 255.6784 104.3662 15.18108574651529
QB50P2                  
1 40032U 14033Y   26158.25957893  .00007939  00000+0  42838-3 0  9995
2 40032  98.0757 154.5231 0006954 196.1630 163.9380 15.15032533651165
PERSEUS-M2              
1 40037U 14033AD  26158.22757456  .00002292  00000+0  21232-3 0  9992
2 40037  97.9979 108.5663 0011368 342.0935  17.9883 14.95487603649293
